ONEWEB-0153             
1 48044U 21025C   23359.48077583  .00000141  00000+0  35031-3 0  9994
2 48044  87.8990 140.2772 0001579  99.8745 260.2562 13.13469374134787
ONEWEB-0154             
1 48045U 21025D   23359.47759250  .00000241  00000+0  62415-3 0  9999
2 48045  87.8998 140.2929 0001596 106.5953 253.5352 13.13470173134743
ONEWEB-0116             
1 48046U 21025E   23359.44267596 -.00000061  00000+0 -20079-3 0  9996
2 48046  87.8990 140.2644 0001384 109.8097 250.3181 13.13474775134882
ONEWEB-0150             
1 48047U 21025F   23359.41727666 -.00000125  00000+0 -37845-3 0  9993
2 48047  87.8995 140.2977 0001560  95.0912 265.0395 13.13467979134771
ONEWEB-0107             
1 48048U 21025G   23359.41887195 -.00000121  00000+0 -36569-3 0  9996
2 48048  87.8996 140.2958 0001704  92.2953 267.8371 13.13471461134759
ONEWEB-0101             
1 48049U 21025H   23359.45855372  .00000320  00000+0  84215-3 0  9993
2 48049  87.8990 140.2942 0001608 100.7355 259.3955 13.13471332134730
ONEWEB-0113             
1 48050U 21025J   23359.43632802 -.00000207  00000+0 -60184-3 0  9999
2 48050  87.8999 140.2811 0001386 106.9254 253.2027 13.13470354134810
ONEWEB-0112             
1 48051U 21025K   23359.42362085 -.00000257  00000+0 -73763-3 0  9994
2 48051  87.8993 140.2928 0001432  96.0364 264.0929 13.13468450134823
